{"type": "FeatureCollection", "features": [{"type": "Feature", "properties": {"norad_id": 22490, "name": "SCD 1", "group": "resource", "lat": -15.099154586077303, "lon": 97.59308262371555, "alt_km": 767.8945538883063, "timestamp": "2025-12-18T15:47:10.876678+00:00", "meta": {"OBJECT_NAME": "SCD 1", "OBJECT_ID": "1993-009B", "EPOCH": "2025-12-18T03:55:17.486112", "MEAN_MOTION": 14.46002807, "ECCENTRICITY": 0.00420291, "INCLINATION": 24.9687, "RA_OF_ASC_NODE": 245.2067, "ARG_OF_PERICENTER": 22.475, "MEAN_ANOMALY": 136.9822, "EPHEMERIS_TYPE": 0, "CLASSIFICATION_TYPE": "U", "NORAD_CAT_ID": 22490, "ELEMENT_SET_NO": 999, "REV_AT_EPOCH": 73488, "BSTAR": 7.3799265e-05, "MEAN_MOTION_DOT": 4.55e-06, "MEAN_MOTION_DDOT": 0}, "tle": {"line1": "1 22490U 93009B   25352.16339683  .00000455  00000+0  73799-4 0  9996", "line2": "2 22490  24.9687 245.2067 0042029  22.4750 136.9822 14.46002807734881"}}, "geometry": {"type": "Point", "coordinates": [97.59308262371555, -15.099154586077303]}}, {"type": "Feature", "properties": {"norad_id": 25397, "name": "TECHSAT 1B (GO-32)", "group": "resource", "lat": -75.28125107480248, "lon": 118.9365757711983, "alt_km": 819.046983415391, "timestamp": "2025-12-18T15:47:10.876712+00:00", "meta": {"OBJECT_NAME": "TECHSAT 1B (GO-32)", "OBJECT_ID": "1998-043D", "EPOCH": "2025-12-18T04:27:43.431840", "MEAN_MOTION": 14.24378625, "ECCENTRICITY": 0.00019032, "INCLINATION": 98.9924, "RA_OF_ASC_NODE": 335.5238, "ARG_OF_PERICENTER": 48.8485, "MEAN_ANOMALY": 311.2857, "EPHEMERIS_TYPE": 0, "CLASSIFICATION_TYPE": "U", "NORAD_CAT_ID": 25397, "ELEMENT_SET_NO": 999, "REV_AT_EPOCH": 42556, "BSTAR": 5.059685e-05, "MEAN_MOTION_DOT": 7e-07, "MEAN_MOTION_DDOT": 0}, "tle": {"line1": "1 25397U 98043D   25352.18591935  .00000070  00000+0  50597-4 0  9994", "line2": "2 25397  98.9924 335.5238 0001903  48.8485 311.2857 14.24378625425569"}}, "geometry": {"type": "Point", "coordinates": [118.9365757711983, -75.28125107480248]}}, {"type": "Feature", "properties": {"norad_id": 25504, "name": "SCD 2", "group": "resource", "lat": -20.930768184042808, "lon": -19.409658618804805, "alt_km": 749.9052242733751, "timestamp": "2025-12-18T15:47:10.876728+00:00", "meta": {"OBJECT_NAME": "SCD 2", "OBJECT_ID": "1998-060A", "EPOCH": "2025-12-17T15:35:50.466624", "MEAN_MOTION": 14.45426055, "ECCENTRICITY": 0.00168517, "INCLINATION": 24.9942, "RA_OF_ASC_NODE": 111.6188, "ARG_OF_PERICENTER": 5.6852, "MEAN_ANOMALY": 17.0271, "EPHEMERIS_TYPE": 0, "CLASSIFICATION_TYPE": "U", "NORAD_CAT_ID": 25504, "ELEMENT_SET_NO": 999, "REV_AT_EPOCH": 43403, "BSTAR": 5.8702746e-05, "MEAN_MOTION_DOT": 3.92e-06, "MEAN_MOTION_DDOT": 0}, "tle": {"line1": "1 25504U 98060A   25351.64988966  .00000392  00000+0  58703-4 0  9991", "line2": "2 25504  24.9942 111.6188 0016851   5.6852  17.0271 14.45426055434039"}}, "geometry": {"type": "Point", "coordinates": [-19.409658618804805, -20.930768184042808]}}, {"type": "Feature", "properties": {"norad_id": 25757, "name": "DLR-TUBSAT", "group": "resource", "lat": -8.25624381288994, "lon": -21.37907515280863, "alt_km": 731.987938511299, "timestamp": "2025-12-18T15:47:10.876742+00:00", "meta": {"OBJECT_NAME": "DLR-TUBSAT", "OBJECT_ID": "1999-029B", "EPOCH": "2025-12-17T13:22:10.787520", "MEAN_MOTION": 14.52359578, "ECCENTRICITY": 0.00141996, "INCLINATION": 98.6566, "RA_OF_ASC_NODE": 336.2196, "ARG_OF_PERICENTER": 177.8976, "MEAN_ANOMALY": 182.2281, "EPHEMERIS_TYPE": 0, "CLASSIFICATION_TYPE": "U", "NORAD_CAT_ID": 25757, "ELEMENT_SET_NO": 999, "REV_AT_EPOCH": 40688, "BSTAR": 3.7650132e-05, "MEAN_MOTION_DOT": 1.05e-06, "MEAN_MOTION_DDOT": 0}, "tle": {"line1": "1 25757U 99029B   25351.55706930  .00000105  00000+0  37650-4 0  9996", "line2": "2 25757  98.6566 336.2196 0014199 177.8976 182.2281 14.52359578406886"}}, "geometry": {"type": "Point", "coordinates": [-21.37907515280863, -8.25624381288994]}}, {"type": "Feature", "properties": {"norad_id": 25994, "name": "TERRA", "group": "resource", "lat": -55.7088723062499, "lon": -147.73719584197423, "alt_km": 699.5634214105849, "timestamp": "2025-12-18T15:47:10.876755+00:00", "meta": {"OBJECT_NAME": "TERRA", "OBJECT_ID": "1999-068A", "EPOCH": "2025-12-18T06:46:55.332768", "MEAN_MOTION": 14.60908205, "ECCENTRICITY": 0.00035679, "INCLINATION": 97.9742, "RA_OF_ASC_NODE": 43.7635, "ARG_OF_PERICENTER": 83.5726, "MEAN_ANOMALY": 340.8829, "EPHEMERIS_TYPE": 0, "CLASSIFICATION_TYPE": "U", "NORAD_CAT_ID": 25994, "ELEMENT_SET_NO": 999, "REV_AT_EPOCH": 38319, "BSTAR": 9.2200134e-05, "MEAN_MOTION_DOT": 4.07e-06, "MEAN_MOTION_DDOT": 0}, "tle": {"line1": "1 25994U 99068A   25352.28258487  .00000407  00000+0  92200-4 0  9999", "line2": "2 25994  97.9742  43.7635 0003567  83.5726 340.8829 14.60908205383192"}}, "geometry": {"type": "Point", "coordinates": [-147.73719584197423, -55.7088723062499]}}, {"type": "Feature", "properties": {"norad_id": 27004, "name": "MAROC-TUBSAT", "group": "resource", "lat": 77.86273968506798, "lon": 34.61637408033704, "alt_km": 1003.1786648157567, "timestamp": "2025-12-18T15:47:10.876767+00:00", "meta": {"OBJECT_NAME": "MAROC-TUBSAT", "OBJECT_ID": "2001-056D", "EPOCH": "2025-12-18T01:50:52.457856", "MEAN_MOTION": 13.70253191, "ECCENTRICITY": 0.00191417, "INCLINATION": 99.7913, "RA_OF_ASC_NODE": 160.6154, "ARG_OF_PERICENTER": 245.9193, "MEAN_ANOMALY": 227.9929, "EPHEMERIS_TYPE": 0, "CLASSIFICATION_TYPE": "U", "NORAD_CAT_ID": 27004, "ELEMENT_SET_NO": 999, "REV_AT_EPOCH": 20138, "BSTAR": 2.5798314e-05, "MEAN_MOTION_DOT": -2.4e-07, "MEAN_MOTION_DDOT": 0}, "tle": {"line1": "1 27004U 01056D   25352.07699604 -.00000024  00000+0  25798-4 0  9994", "line2": "2 27004  99.7913 160.6154 0019141 245.9193 227.9929 13.70253191201381"}}, "geometry": {"type": "Point", "coordinates": [34.61637408033704, 77.86273968506798]}}, {"type": "Feature", "properties": {"norad_id": 27424, "name": "AQUA", "group": "resource", "lat": 48.100766365856536, "lon": 143.11742975773294, "alt_km": 682.1278926177056, "timestamp": "2025-12-18T15:47:10.876779+00:00", "meta": {"OBJECT_NAME": "AQUA", "OBJECT_ID": "2002-022A", "EPOCH": "2025-12-18T00:44:29.182848", "MEAN_MOTION": 14.61821302, "ECCENTRICITY": 0.00012878, "INCLINATION": 98.4043, "RA_OF_ASC_NODE": 312.9961, "ARG_OF_PERICENTER": 113.4651, "MEAN_ANOMALY": 320.6588, "EPHEMERIS_TYPE": 0, "CLASSIFICATION_TYPE": "U", "NORAD_CAT_ID": 27424, "ELEMENT_SET_NO": 999, "REV_AT_EPOCH": 25680, "BSTAR": 0.00017905095, "MEAN_MOTION_DOT": 8.45e-06, "MEAN_MOTION_DDOT": 0}, "tle": {"line1": "1 27424U 02022A   25352.03089332  .00000845  00000+0  17905-3 0  9991", "line2": "2 27424  98.4043 312.9961 0001287 113.4651 320.6588 14.61821302256800"}}, "geometry": {"type": "Point", "coordinates": [143.11742975773294, 48.100766365856536]}}, {"type": "Feature", "properties": {"norad_id": 28051, "name": "IRS-P6 (RESOURCESAT-1)", "group": "resource", "lat": 11.877599840429113, "lon": -145.4672024797364, "alt_km": 726.8385016974134, "timestamp": "2025-12-18T15:47:10.876790+00:00", "meta": {"OBJECT_NAME": "IRS-P6 (RESOURCESAT-1)", "OBJECT_ID": "2003-046A", "EPOCH": "2025-12-18T08:22:10.702272", "MEAN_MOTION": 14.36077289, "ECCENTRICITY": 0.00644641, "INCLINATION": 98.2176, "RA_OF_ASC_NODE": 32.4964, "ARG_OF_PERICENTER": 163.8983, "MEAN_ANOMALY": 207.2022, "EPHEMERIS_TYPE": 0, "CLASSIFICATION_TYPE": "U", "NORAD_CAT_ID": 28051, "ELEMENT_SET_NO": 999, "REV_AT_EPOCH": 15457, "BSTAR": 5.8864361e-05, "MEAN_MOTION_DOT": 1.35e-06, "MEAN_MOTION_DDOT": 0}, "tle": {"line1": "1 28051U 03046A   25352.34873498  .00000135  00000+0  58864-4 0  9995", "line2": "2 28051  98.2176  32.4964 0064464 163.8983 207.2022 14.36077289154575"}}, "geometry": {"type": "Point", "coordinates": [-145.4672024797364, 11.877599840429113]}}, {"type": "Feature", "properties": {"norad_id": 28220, "name": "SHIYAN-1 (SY-1)", "group": "resource", "lat": -21.532111932832194, "lon": -128.59188499466896, "alt_km": 486.96863003596354, "timestamp": "2025-12-18T15:47:10.876802+00:00", "meta": {"OBJECT_NAME": "SHIYAN-1 (SY-1)", "OBJECT_ID": "2004-012A", "EPOCH": "2025-12-18T03:54:23.883552", "MEAN_MOTION": 15.28283711, "ECCENTRICITY": 0.00052988, "INCLINATION": 97.8935, "RA_OF_ASC_NODE": 54.0219, "ARG_OF_PERICENTER": 303.7952, "MEAN_ANOMALY": 56.2781, "EPHEMERIS_TYPE": 0, "CLASSIFICATION_TYPE": "U", "NORAD_CAT_ID": 28220, "ELEMENT_SET_NO": 999, "REV_AT_EPOCH": 18339, "BSTAR": 0.00038993119, "MEAN_MOTION_DOT": 0.0001067, "MEAN_MOTION_DDOT": 0}, "tle": {"line1": "1 28220U 04012A   25352.16277643  .00010670  00000+0  38993-3 0  9992", "line2": "2 28220  97.8935  54.0219 0005298 303.7952  56.2781 15.28283711183392"}}, "geometry": {"type": "Point", "coordinates": [-128.59188499466896, -21.532111932832194]}}, {"type": "Feature", "properties": {"norad_id": 28376, "name": "AURA", "group": "resource", "lat": -62.87178885475682, "lon": 106.31782021883276, "alt_km": 698.0875445596321, "timestamp": "2025-12-18T15:47:10.876813+00:00", "meta": {"OBJECT_NAME": "AURA", "OBJECT_ID": "2004-026A", "EPOCH": "2025-12-18T04:48:37.480320", "MEAN_MOTION": 14.609593, "ECCENTRICITY": 0.00013318, "INCLINATION": 98.3191, "RA_OF_ASC_NODE": 302.4525, "ARG_OF_PERICENTER": 93.3284, "MEAN_ANOMALY": 266.8068, "EPHEMERIS_TYPE": 0, "CLASSIFICATION_TYPE": "U", "NORAD_CAT_ID": 28376, "ELEMENT_SET_NO": 999, "REV_AT_EPOCH": 13978, "BSTAR": 0.00018287239, "MEAN_MOTION_DOT": 8.48e-06, "MEAN_MOTION_DDOT": 0}, "tle": {"line1": "1 28376U 04026A   25352.20043380  .00000848  00000+0  18287-3 0  9993", "line2": "2 28376  98.3191 302.4525 0001331  93.3284 266.8068 14.60959300139788"}}, "geometry": {"type": "Point", "coordinates": [106.31782021883276, -62.87178885475682]}}]}